{
  "type": "FeatureCollection",
  "features": [
    {
      "type": "Feature",
      "properties": {
        "norad_id": 35012,
        "name": "COSMOS 2251 DEB",
        "group": "cosmos-2251-debris",
        "lat": -72.23695923166393,
        "lon": 40.98726248914863,
        "alt_km": 698.9331656531913,
        "timestamp": "2025-12-16T15:45:51.441611+00:00",
        "meta_object_name": "COSMOS 2251 DEB",
        "meta_object_id": "1993-036AFZ",
        "meta_epoch": "2025-12-14T14:18:50.707008",
        "meta_mean_motion": 14.45551422,
        "meta_eccentricity": 0.00815929,
        "meta_inclination": 74.0205,
        "meta_ra_of_asc_node": 108.2711,
        "meta_arg_of_pericenter": 248.0498,
        "meta_mean_anomaly": 111.1974,
        "meta_ephemeris_type": 0,
        "meta_classification_type": "U",
        "meta_norad_cat_id": 35012,
        "meta_element_set_no": 999,
        "meta_rev_at_epoch": 87588,
        "meta_bstar": 0.00022143497,
        "meta_mean_motion_dot": 7.85e-06,
        "meta_mean_motion_ddot": 0,
        "tle_line1": "1 35012U 93036AFZ 25348.59642022  .00000785  00000+0  22143-3 0  9998",
        "tle_line2": "2 35012  74.0205 108.2711 0081592 248.0498 111.1974 14.45551422875884"
      },
      "geometry": {
        "type": "Point",
        "coordinates": [
          40.98726248914863,
          -72.23695923166393
        ]
      }
    },
    {
      "type": "Feature",
      "properties": {
        "norad_id": 35014,
        "name": "COSMOS 2251 DEB",
        "group": "cosmos-2251-debris",
        "lat": 72.15152801293539,
        "lon": 98.8767241618898,
        "alt_km": 640.3484582901574,
        "timestamp": "2025-12-16T15:45:51.441622+00:00",
        "meta_object_name": "COSMOS 2251 DEB",
        "meta_object_id": "1993-036AGB",
        "meta_epoch": "2025-12-15T10:05:53.714976",
        "meta_mean_motion": 14.75246111,
        "meta_eccentricity": 0.00071618,
        "meta_inclination": 74,
        "meta_ra_of_asc_node": 38.2838,
        "meta_arg_of_pericenter": 216.2396,
        "meta_mean_anomaly": 143.8294,
        "meta_ephemeris_type": 0,
        "meta_classification_type": "U",
        "meta_norad_cat_id": 35014,
        "meta_element_set_no": 999,
        "meta_rev_at_epoch": 71376,
        "meta_bstar": 0.00097651538,
        "meta_mean_motion_dot": 6.583e-05,
        "meta_mean_motion_ddot": 0,
        "tle_line1": "1 35014U 93036AGB 25349.42076059  .00006583  00000+0  97652-3 0  9993",
        "tle_line2": "2 35014  74.0000  38.2838 0007161 216.2396 143.8294 14.75246111713769"
      },
      "geometry": {
        "type": "Point",
        "coordinates": [
          98.8767241618898,
          72.15152801293539
        ]
      }
    },
    {
      "type": "Feature",
      "properties": {
        "norad_id": 35015,
        "name": "COSMOS 2251 DEB",
        "group": "cosmos-2251-debris",
        "lat": 65.78274990257246,
        "lon": -92.83115536462289,
        "alt_km": 680.526165003098,
        "timestamp": "2025-12-16T15:45:51.441632+00:00",
        "meta_object_name": "COSMOS 2251 DEB",
        "meta_object_id": "1993-036AGC",
        "meta_epoch": "2025-12-15T22:56:26.813760",
        "meta_mean_motion": 14.46895598,
        "meta_eccentricity": 0.0074243,
        "meta_inclination": 73.9481,
        "meta_ra_of_asc_node": 228.6843,
        "meta_arg_of_pericenter": 96.6585,
        "meta_mean_anomaly": 285.5342,
        "meta_ephemeris_type": 0,
        "meta_classification_type": "U",
        "meta_norad_cat_id": 35015,
        "meta_element_set_no": 999,
        "meta_rev_at_epoch": 65487,
        "meta_bstar": 0.00054698056,
        "meta_mean_motion_dot": 2.026e-05,
        "meta_mean_motion_ddot": 0,
        "tle_line1": "1 35015U 93036AGC 25349.95586590  .00002026  00000+0  54698-3 0  9999",
        "tle_line2": "2 35015  73.9481 228.6843 0074243  96.6585 285.5342 14.46895598654878"
      },
      "geometry": {
        "type": "Point",
        "coordinates": [
          -92.83115536462289,
          65.78274990257246
        ]
      }
    },
    {
      "type": "Feature",
      "properties": {
        "norad_id": 35016,
        "name": "COSMOS 2251 DEB",
        "group": "cosmos-2251-debris",
        "lat": -65.57212543006041,
        "lon": -112.19691108876596,
        "alt_km": 774.1116489500355,
        "timestamp": "2025-12-16T15:45:51.441642+00:00",
        "meta_object_name": "COSMOS 2251 DEB",
        "meta_object_id": "1993-036AGD",
        "meta_epoch": "2025-12-14T14:45:32.916384",
        "meta_mean_motion": 14.35064603,
        "meta_eccentricity": 0.01144143,
        "meta_inclination": 73.9301,
        "meta_ra_of_asc_node": 290.9619,
        "meta_arg_of_pericenter": 207.5533,
        "meta_mean_anomaly": 335.1759,
        "meta_ephemeris_type": 0,
        "meta_classification_type": "U",
        "meta_norad_cat_id": 35016,
        "meta_element_set_no": 999,
        "meta_rev_at_epoch": 86809,
        "meta_bstar": 0.00038793382,
        "meta_mean_motion_dot": 1.163e-05,
        "meta_mean_motion_ddot": 0,
        "tle_line1": "1 35016U 93036AGD 25348.61496431  .00001163  00000+0  38793-3 0  9995",
        "tle_line2": "2 35016  73.9301 290.9619 0114414 207.5533 335.1759 14.35064603868092"
      },
      "geometry": {
        "type": "Point",
        "coordinates": [
          -112.19691108876596,
          -65.57212543006041
        ]
      }
    },
    {
      "type": "Feature",
      "properties": {
        "norad_id": 35018,
        "name": "COSMOS 2251 DEB",
        "group": "cosmos-2251-debris",
        "lat": 26.30258623536474,
        "lon": -84.63372965937371,
        "alt_km": 1203.7211046688535,
        "timestamp": "2025-12-16T15:45:51.441652+00:00",
        "meta_object_name": "COSMOS 2251 DEB",
        "meta_object_id": "1993-036AGF",
        "meta_epoch": "2025-12-14T01:34:23.097504",
        "meta_mean_motion": 13.6711728,
        "meta_eccentricity": 0.03485759,
        "meta_inclination": 73.9758,
        "meta_ra_of_asc_node": 107.7987,
        "meta_arg_of_pericenter": 16.6862,
        "meta_mean_anomaly": 344.5383,
        "meta_ephemeris_type": 0,
        "meta_classification_type": "U",
        "meta_norad_cat_id": 35018,
        "meta_element_set_no": 999,
        "meta_rev_at_epoch": 83204,
        "meta_bstar": 0.00097087301,
        "meta_mean_motion_dot": 1.216e-05,
        "meta_mean_motion_ddot": 0,
        "tle_line1": "1 35018U 93036AGF 25348.06554511  .00001216  00000+0  97087-3 0  9990",
        "tle_line2": "2 35018  73.9758 107.7987 0348575  16.6862 344.5383 13.67117280832041"
      },
      "geometry": {
        "type": "Point",
        "coordinates": [
          -84.63372965937371,
          26.30258623536474
        ]
      }
    },
    {
      "type": "Feature",
      "properties": {
        "norad_id": 35020,
        "name": "COSMOS 2251 DEB",
        "group": "cosmos-2251-debris",
        "lat": 51.691029776316604,
        "lon": -147.3252004742171,
        "alt_km": 700.634116950886,
        "timestamp": "2025-12-16T15:45:51.441662+00:00",
        "meta_object_name": "COSMOS 2251 DEB",
        "meta_object_id": "1993-036AGH",
        "meta_epoch": "2025-12-13T23:30:11.436192",
        "meta_mean_motion": 14.62807678,
        "meta_eccentricity": 0.00911998,
        "meta_inclination": 74.0461,
        "meta_ra_of_asc_node": 196.573,
        "meta_arg_of_pericenter": 310.4261,
        "meta_mean_anomaly": 48.8974,
        "meta_ephemeris_type": 0,
        "meta_classification_type": "U",
        "meta_norad_cat_id": 35020,
        "meta_element_set_no": 999,
        "meta_rev_at_epoch": 88256,
        "meta_bstar": 0.00019069928,
        "meta_mean_motion_dot": 9.99e-06,
        "meta_mean_motion_ddot": 0,
        "tle_line1": "1 35020U 93036AGH 25347.97929903  .00000999  00000+0  19070-3 0  9996",
        "tle_line2": "2 35020  74.0461 196.5730 0091199 310.4261  48.8974 14.62807678882569"
      },
      "geometry": {
        "type": "Point",
        "coordinates": [
          -147.3252004742171,
          51.691029776316604
        ]
      }
    },
    {
      "type": "Feature",
      "properties": {
        "norad_id": 35022,
        "name": "COSMOS 2251 DEB",
        "group": "cosmos-2251-debris",
        "lat": 69.6284324836695,
        "lon": 4.91625712422078,
        "alt_km": 675.1928849349551,
        "timestamp": "2025-12-16T15:45:51.441673+00:00",
        "meta_object_name": "COSMOS 2251 DEB",
        "meta_object_id": "1993-036AGK",
        "meta_epoch": "2025-12-15T14:45:27.251136",
        "meta_mean_motion": 14.60846809,
        "meta_eccentricity": 0.00465822,
        "meta_inclination": 74.027,
        "meta_ra_of_asc_node": 316.4327,
        "meta_arg_of_pericenter": 155.4398,
        "meta_mean_anomaly": 204.9001,
        "meta_ephemeris_type": 0,
        "meta_classification_type": "U",
        "meta_norad_cat_id": 35022,
        "meta_element_set_no": 999,
        "meta_rev_at_epoch": 59185,
        "meta_bstar": 0.00033959453,
        "meta_mean_motion_dot": 1.655e-05,
        "meta_mean_motion_ddot": 0,
        "tle_line1": "1 35022U 93036AGK 25349.61489874  .00001655  00000+0  33959-3 0  9991",
        "tle_line2": "2 35022  74.0270 316.4327 0046582 155.4398 204.9001 14.60846809591850"
      },
      "geometry": {
        "type": "Point",
        "coordinates": [
          4.91625712422078,
          69.6284324836695
        ]
      }
    }
  ]
}